[
    {
        "CCSDS_OMM_VERS": "3.0",
        "COMMENT": "GENERATED VIA SPACE-TRACK.ORG API",
        "CREATION_DATE": "2025-04-14T03:05:54",
        "ORIGINATOR": "18 SPCS",
        "OBJECT_NAME": "BEIDOU 3M23",
        "OBJECT_ID": "2019-061A",
        "CENTER_NAME": "EARTH",
        "REF_FRAME": "TEME",
        "TIME_SYSTEM": "UTC",
        "MEAN_ELEMENT_THEORY": "SGP4",
        "EPOCH": "2025-04-13T03:23:44.734272",
        "MEAN_MOTION": "1.86229066",
        "ECCENTRICITY": "0.00075990",
        "INCLINATION": "54.4139",
        "RA_OF_ASC_NODE": "197.2322",
        "ARG_OF_PERICENTER": "3.7383",
        "MEAN_ANOMALY": "356.3002",
        "EPHEMERIS_TYPE": "0",
        "CLASSIFICATION_TYPE": "U",
        "NORAD_CAT_ID": "44542",
        "ELEMENT_SET_NO": "999",
        "REV_AT_EPOCH": "3778",
        "BSTAR": "0.00000000000000",
        "MEAN_MOTION_DOT": "0.00000013",
        "MEAN_MOTION_DDOT": "0.0000000000000",
        "SEMIMAJOR_AXIS": "27906.382",
        "PERIOD": "773.241",
        "APOAPSIS": "21549.453",
        "PERIAPSIS": "21507.041",
        "OBJECT_TYPE": "PAYLOAD",
        "RCS_SIZE": "LARGE",
        "COUNTRY_CODE": "PRC",
        "LAUNCH_DATE": "2019-09-22",
        "SITE": "XSC",
        "DECAY_DATE": null,
        "FILE": "4701263",
        "GP_ID": "285539182",
        "TLE_LINE0": "0 BEIDOU 3M23",
        "TLE_LINE1": "1 44542U 19061A   25103.14148998  .00000013  00000-0  00000-0 0  9995",
        "TLE_LINE2": "2 44542  54.4139 197.2322 0007599   3.7383 356.3002  1.86229066 37781"
    }
]